{"type": "FeatureCollection", "features": [{"type": "Feature", "geometry": {"type": "Polygon", "coordinates": [[[78.0918658, 19.8829513], [78.091949, 19.8818433], [78.0959339, 19.8812972], [78.0962357, 19.8823856], [78.0929166, 19.8827328], [78.0918658, 19.8829513]]]}, "properties": {"state": "Maharashtra", "district": "Nanded", "taluka": "Mahur", "village": "\u092c\u094b\u0902\u0921 \u0917\u0935\u094d\u0939\u093e\u0923", "village_giscode": "RVM1501271500010190910000", "survey_no": "1", "plotid": "nEMzI-GFTayqsafpwfcd3w", "bbox": [78.09182067731605, 19.881288063450157, 78.09625994911315, 19.882952571483656], "area_hectares": 5.2, "area_acres": 12.849, "geom_kind": "polygon", "has_geometry": true}}, {"type": "Feature", "geometry": {"type": "Polygon", "coordinates": [[[78.0886854, 19.8842392], [78.0882675, 19.8835356], [78.0918581, 19.8829563], [78.0917814, 19.883578], [78.0886854, 19.8842392]]]}, "properties": {"state": "Maharashtra", "district": "Nanded", "taluka": "Mahur", "village": "\u092c\u094b\u0902\u0921 \u0917\u0935\u094d\u0939\u093e\u0923", "village_giscode": "RVM1501271500010190910000", "survey_no": "10", "plotid": "IhwCkH57R3GsZOp-3huQiw", "bbox": [78.08825611507002, 19.88295222986062, 78.09189508033235, 19.88424627459074], "area_hectares": 2.66, "area_acres": 6.573, "geom_kind": "polygon", "has_geometry": true}}, {"type": "Feature", "geometry": {"type": "Polygon", "coordinates": [[[78.0892821, 19.8853543], [78.0886833, 19.8842466], [78.0917859, 19.8835831], [78.0918192, 19.884927], [78.0922018, 19.8856524], [78.0909291, 19.8859335], [78.0905548, 19.8853937], [78.0900807, 19.8851913], [78.0892821, 19.8853543]]]}, "properties": {"state": "Maharashtra", "district": "Nanded", "taluka": "Mahur", "village": "\u092c\u094b\u0902\u0921 \u0917\u0935\u094d\u0939\u093e\u0923", "village_giscode": "RVM1501271500010190910000", "survey_no": "11", "plotid": "90XTeeakSzORZ9WgWKpVMQ", "bbox": [78.08867215992288, 19.883570020478587, 78.0922211903955, 19.885969111563387], "area_hectares": 5.44, "area_acres": 13.443, "geom_kind": "polygon", "has_geometry": true}}, {"type": "Feature", "geometry": {"type": "Polygon", "coordinates": [[[78.0896437, 19.8870118], [78.0892785, 19.885358], [78.0900559, 19.8851844], [78.0905467, 19.885384], [78.0909275, 19.885931], [78.0908175, 19.8866211], [78.0908333, 19.8867514], [78.0896437, 19.8870118]]]}, "properties": {"state": "Maharashtra", "district": "Nanded", "taluka": "Mahur", "village": "\u092c\u094b\u0902\u0921 \u0917\u0935\u094d\u0939\u093e\u0923", "village_giscode": "RVM1501271500010190910000", "survey_no": "12", "plotid": "D4Mpxr7HR5a9u_jt2FjAuQ", "bbox": [78.08927721952652, 19.885165545178786, 78.09095234476769, 19.88701760227653], "area_hectares": 2.34, "area_acres": 5.782, "geom_kind": "polygon", "has_geometry": true}}, {"type": "Feature", "geometry": {"type": "Polygon", "coordinates": [[[78.0903205, 19.8889116], [78.0896412, 19.8870201], [78.0908312, 19.8867536], [78.0910592, 19.8874251], [78.091392, 19.8872559], [78.0915562, 19.8878095], [78.0910318, 19.8882043], [78.0903205, 19.8889116]]]}, "properties": {"state": "Maharashtra", "district": "Nanded", "taluka": "Mahur", "village": "\u092c\u094b\u0902\u0921 \u0917\u0935\u094d\u0939\u093e\u0923", "village_giscode": "RVM1501271500010190910000", "survey_no": "13", "plotid": "HPt5ftfaSS2HsGXGqksFiQ", "bbox": [78.08963966201897, 19.886736500642833, 78.09158504915159, 19.888923605719732], "area_hectares": 2.43, "area_acres": 6.005, "geom_kind": "polygon", "has_geometry": true}}, {"type": "Feature", "geometry": {"type": "Polygon", "coordinates": [[[78.0902232, 19.8886575], [78.0890926, 19.8892146], [78.0876914, 19.885954], [78.089273, 19.8853694], [78.0896399, 19.8870408], [78.0902232, 19.8886575]]]}, "properties": {"state": "Maharashtra", "district": "Nanded", "taluka": "Mahur", "village": "\u092c\u094b\u0902\u0921 \u0917\u0935\u094d\u0939\u093e\u0923", "village_giscode": "RVM1501271500010190910000", "survey_no": "14", "plotid": "0UlQq1NVS2-OEwITgdlxBA", "bbox": [78.08767733265181, 19.88533897364765, 78.090243266679, 19.889235931063055], "area_hectares": 5.68, "area_acres": 14.036, "geom_kind": "polygon", "has_geometry": true}}, {"type": "Feature", "geometry": {"type": "Polygon", "coordinates": [[[78.0890861, 19.8892154], [78.0881599, 19.8894607], [78.0871442, 19.8895283], [78.0863904, 19.88634], [78.0876872, 19.8859679], [78.0890861, 19.8892154]]]}, "properties": {"state": "Maharashtra", "district": "Nanded", "taluka": "Mahur", "village": "\u092c\u094b\u0902\u0921 \u0917\u0935\u094d\u0939\u093e\u0923", "village_giscode": "RVM1501271500010190910000", "survey_no": "15", "plotid": "wClMDmrWTSSO-pUs1MV9qQ", "bbox": [78.08637554055747, 19.885931287635906, 78.08910098204092, 19.8895395944846], "area_hectares": 6.42, "area_acres": 15.864, "geom_kind": "polygon", "has_geometry": true}}, {"type": "Feature", "geometry": {"type": "Polygon", "coordinates": [[[78.0821371, 19.8869494], [78.0821709, 19.8863392], [78.0844359, 19.8861254], [78.088932, 19.8847694], [78.0892532, 19.8853587], [78.0877488, 19.8859324], [78.0842838, 19.8868816], [78.0825935, 19.8869755], [78.0821371, 19.8869494]]]}, "properties": {"state": "Maharashtra", "district": "Nanded", "taluka": "Mahur", "village": "\u092c\u094b\u0902\u0921 \u0917\u0935\u094d\u0939\u093e\u0923", "village_giscode": "RVM1501271500010190910000", "survey_no": "16", "plotid": "PNE1zS-4SmudmfI3tYAuMg", "bbox": [78.0820976690078, 19.884757206082014, 78.08930951325821, 19.886982464339535], "area_hectares": 5.81, "area_acres": 14.357, "geom_kind": "polygon", "has_geometry": true}}, {"type": "Feature", "geometry": {"type": "Polygon", "coordinates": [[[78.0821703, 19.8863364], [78.0822024, 19.8857216], [78.0857475, 19.8850479], [78.088667, 19.8842463], [78.0889237, 19.8847627], [78.0844321, 19.88612], [78.0821703, 19.8863364]]]}, "properties": {"state": "Maharashtra", "district": "Nanded", "taluka": "Mahur", "village": "\u092c\u094b\u0902\u0921 \u0917\u0935\u094d\u0939\u093e\u0923", "village_giscode": "RVM1501271500010190910000", "survey_no": "17", "plotid": "u-tFv6IoTieOTaLaak-dsQ", "bbox": [78.08213284020123, 19.88423483780941, 78.08897716754969, 19.886333075005194], "area_hectares": 5.4, "area_acres": 13.344, "geom_kind": "polygon", "has_geometry": true}}, {"type": "Feature", "geometry": {"type": "Polygon", "coordinates": [[[78.0822071, 19.8857217], [78.0820982, 19.8846666], [78.0826113, 19.8847329], [78.0860625, 19.8838467], [78.088068, 19.8831714], [78.0886587, 19.8842386], [78.085736, 19.8850464], [78.0822071, 19.8857217]]]}, "properties": {"state": "Maharashtra", "district": "Nanded", "taluka": "Mahur", "village": "\u092c\u094b\u0902\u0921 \u0917\u0935\u094d\u0939\u093e\u0923", "village_giscode": "RVM1501271500010190910000", "survey_no": "18", "plotid": "ROPtV2pwT9GSwONsZJd54Q", "bbox": [78.082077500491, 19.883151325418805, 78.08871054798131, 19.88572370898623], "area_hectares": 6.12, "area_acres": 15.123, "geom_kind": "polygon", "has_geometry": true}}, {"type": "Feature", "geometry": {"type": "Polygon", "coordinates": [[[78.0824802, 19.8847137], [78.0822456, 19.883619], [78.0856815, 19.8827482], [78.0875857, 19.8820889], [78.0880687, 19.8831649], [78.0860679, 19.8838367], [78.0824802, 19.8847137]]]}, "properties": {"state": "Maharashtra", "district": "Nanded", "taluka": "Mahur", "village": "\u092c\u094b\u0902\u0921 \u0917\u0935\u094d\u0939\u093e\u0923", "village_giscode": "RVM1501271500010190910000", "survey_no": "19", "plotid": "Jt2y_o55QG25AiKIITzQUA", "bbox": [78.08222718559398, 19.882074353316767, 78.08811470345906, 19.88472825256778], "area_hectares": 7.64, "area_acres": 18.879, "geom_kind": "polygon", "has_geometry": true}}, {"type": "Feature", "geometry": {"type": "Polygon", "coordinates": [[[78.0962451, 19.8823851], [78.0959499, 19.8812998], [78.0990759, 19.880637], [78.099623, 19.881685], [78.0975824, 19.882062], [78.0975303, 19.8821407], [78.0962451, 19.8823851]]]}, "properties": {"state": "Maharashtra", "district": "Nanded", "taluka": "Mahur", "village": "\u092c\u094b\u0902\u0921 \u0917\u0935\u094d\u0939\u093e\u0923", "village_giscode": "RVM1501271500010190910000", "survey_no": "2", "plotid": "R9MmupSVTCqk0o1K766QYg", "bbox": [78.095938293268, 19.8806231837043, 78.09964326150721, 19.882390622413247], "area_hectares": 4.42, "area_acres": 10.922, "geom_kind": "polygon", "has_geometry": true}}, {"type": "Feature", "geometry": {"type": "Polygon", "coordinates": [[[78.080945, 19.8838122], [78.0807834, 19.8832918], [78.0873433, 19.8812472], [78.0875857, 19.882092], [78.0856791, 19.8827409], [78.0823991, 19.8835857], [78.0811065, 19.8838367], [78.080945, 19.8838122]]]}, "properties": {"state": "Maharashtra", "district": "Nanded", "taluka": "Mahur", "village": "\u092c\u094b\u0902\u0921 \u0917\u0935\u094d\u0939\u093e\u0923", "village_giscode": "RVM1501271500010190910000", "survey_no": "20", "plotid": "lfRZ5qBRSCe6nIc8a_3qSg", "bbox": [78.08074569784456, 19.881226761377377, 78.08763954761763, 19.88383871532888], "area_hectares": 6.44, "area_acres": 15.914, "geom_kind": "polygon", "has_geometry": true}}, {"type": "Feature", "geometry": {"type": "Polygon", "coordinates": [[[78.0807741, 19.8832843], [78.080679, 19.8824501], [78.0831196, 19.8815332], [78.0846411, 19.8808301], [78.0870817, 19.8803613], [78.0872719, 19.8812782], [78.0807741, 19.8832843]]]}, "properties": {"state": "Maharashtra", "district": "Nanded", "taluka": "Mahur", "village": "\u092c\u094b\u0902\u0921 \u0917\u0935\u094d\u0939\u093e\u0923", "village_giscode": "RVM1501271500010190910000", "survey_no": "21", "plotid": "IF84JPa4S86R-WsQlbwUPQ", "bbox": [78.08064200605088, 19.880345229270354, 78.087403998135, 19.88328655030651], "area_hectares": 8.12, "area_acres": 20.065, "geom_kind": "polygon", "has_geometry": true}}, {"type": "Feature", "geometry": {"type": "Polygon", "coordinates": [[[78.0802804, 19.8838658], [78.0801585, 19.8833042], [78.0796048, 19.8828973], [78.0795455, 19.8828166], [78.0806759, 19.8824501], [78.0807352, 19.8831462], [78.0809395, 19.883812], [78.0802804, 19.8838658]]]}, "properties": {"state": "Maharashtra", "district": "Nanded", "taluka": "Mahur", "village": "\u092c\u094b\u0902\u0921 \u0917\u0935\u094d\u0939\u093e\u0923", "village_giscode": "RVM1501271500010190910000", "survey_no": "22", "plotid": "xEfwrlliQRGjcvQqEX3_lg", "bbox": [78.0795377950803, 19.88244222221698, 78.08094390730407, 19.883876989572805], "area_hectares": 1.26, "area_acres": 3.114, "geom_kind": "polygon", "has_geometry": true}}, {"type": "Feature", "geometry": {"type": "Polygon", "coordinates": [[[78.0813209, 19.8848162], [78.0804288, 19.8844313], [78.0802784, 19.8838683], [78.0809267, 19.8838137], [78.0811083, 19.8838367], [78.0822493, 19.8836155], [78.0824827, 19.8847128], [78.0820937, 19.8846611], [78.0813209, 19.8848162]]]}, "properties": {"state": "Maharashtra", "district": "Nanded", "taluka": "Mahur", "village": "\u092c\u094b\u0902\u0921 \u0917\u0935\u094d\u0939\u093e\u0923", "village_giscode": "RVM1501271500010190910000", "survey_no": "23", "plotid": "5L-YSzVaRMq8GbpYOGYbUw", "bbox": [78.08027669427061, 19.883608785393847, 78.0824896324907, 19.88483443157248], "area_hectares": 2.2, "area_acres": 5.436, "geom_kind": "polygon", "has_geometry": true}}, {"type": "Feature", "geometry": {"type": "Polygon", "coordinates": [[[78.0814282, 19.8869059], [78.0813204, 19.8848228], [78.0821011, 19.8846663], [78.0822111, 19.8857133], [78.0821464, 19.8864742], [78.0821357, 19.886949], [78.0814282, 19.8869059]]]}, "properties": {"state": "Maharashtra", "district": "Nanded", "taluka": "Mahur", "village": "\u092c\u094b\u0902\u0921 \u0917\u0935\u094d\u0939\u093e\u0923", "village_giscode": "RVM1501271500010190910000", "survey_no": "24", "plotid": "v0IKkpyITsmrcL0iQ5Y_rA", "bbox": [78.08131750547727, 19.88465914777378, 78.08223774451164, 19.886961636607374], "area_hectares": 0.0, "area_acres": 0.0, "geom_kind": "polygon", "has_geometry": true}}, {"type": "Feature", "geometry": {"type": "Polygon", "coordinates": [[[78.0845506, 19.8894307], [78.0832812, 19.8886009], [78.0819304, 19.8883037], [78.0811167, 19.8874801], [78.0810923, 19.8873067], [78.0814259, 19.8869166], [78.0826058, 19.8869847], [78.0841356, 19.8869104], [78.0845506, 19.8894307]]]}, "properties": {"state": "Maharashtra", "district": "Nanded", "taluka": "Mahur", "village": "\u092c\u094b\u0902\u0921 \u0917\u0935\u094d\u0939\u093e\u0923", "village_giscode": "RVM1501271500010190910000", "survey_no": "25", "plotid": "J7LQW3RPQQKejHKtaHPRTg", "bbox": [78.08108961060661, 19.886852584978776, 78.08456144556641, 19.889494728150517], "area_hectares": 5.53, "area_acres": 13.665, "geom_kind": "polygon", "has_geometry": true}}, {"type": "Feature", "geometry": {"type": "Polygon", "coordinates": [[[78.0844744, 19.8889302], [78.0841419, 19.8869093], [78.0855118, 19.88655], [78.0858363, 19.8886944], [78.0844744, 19.8889302]]]}, "properties": {"state": "Maharashtra", "district": "Nanded", "taluka": "Mahur", "village": "\u092c\u094b\u0902\u0921 \u0917\u0935\u094d\u0939\u093e\u0923", "village_giscode": "RVM1501271500010190910000", "survey_no": "26", "plotid": "6vsnf6HSRZiOqcppSBmvAg", "bbox": [78.08413660369158, 19.886536901699515, 78.08584564725197, 19.888932062617833], "area_hectares": 3.28, "area_acres": 8.105, "geom_kind": "polygon", "has_geometry": true}}, {"type": "Feature", "geometry": {"type": "Polygon", "coordinates": [[[78.0858394, 19.8886972], [78.0855159, 19.8865505], [78.0863832, 19.8863508], [78.0869302, 19.8885308], [78.0858394, 19.8886972]]]}, "properties": {"state": "Maharashtra", "district": "Nanded", "taluka": "Mahur", "village": "\u092c\u094b\u0902\u0921 \u0917\u0935\u094d\u0939\u093e\u0923", "village_giscode": "RVM1501271500010190910000", "survey_no": "27", "plotid": "d04j5KwhQn-5AciCNkrXDg", "bbox": [78.08551478100384, 19.88633235435122, 78.08693798679657, 19.888699046575255], "area_hectares": 2.7, "area_acres": 6.672, "geom_kind": "polygon", "has_geometry": true}}, {"type": "Feature", "geometry": {"type": "Polygon", "coordinates": [[[78.0865571, 19.8901891], [78.0853839, 19.889803], [78.0845592, 19.8894355], [78.0844708, 19.8889306], [78.0861938, 19.8886522], [78.0865571, 19.8901891]]]}, "properties": {"state": "Maharashtra", "district": "Nanded", "taluka": "Mahur", "village": "\u092c\u094b\u0902\u0921 \u0917\u0935\u094d\u0939\u093e\u0923", "village_giscode": "RVM1501271500010190910000", "survey_no": "28", "plotid": "YBcC7-L6QoW_9Zaah0CuuQ", "bbox": [78.08446915752748, 19.88864355422767, 78.08656362897167, 19.890227451408194], "area_hectares": 2.26, "area_acres": 5.585, "geom_kind": "polygon", "has_geometry": true}}, {"type": "Feature", "geometry": {"type": "Polygon", "coordinates": [[[78.0872494, 19.8901735], [78.0869484, 19.8902507], [78.0865636, 19.8901938], [78.0862034, 19.8886529], [78.0869336, 19.888535], [78.0871334, 19.889397], [78.0872494, 19.8901735]]]}, "properties": {"state": "Maharashtra", "district": "Nanded", "taluka": "Mahur", "village": "\u092c\u094b\u0902\u0921 \u0917\u0935\u094d\u0939\u093e\u0923", "village_giscode": "RVM1501271500010190910000", "survey_no": "29", "plotid": "FueNz1PrTh-loFYBAGsvMQ", "bbox": [78.08620012681374, 19.888525558931274, 78.08725267829676, 19.89026022161497], "area_hectares": 1.31, "area_acres": 3.237, "geom_kind": "polygon", "has_geometry": true}}, {"type": "Feature", "geometry": {"type": "Polygon", "coordinates": [[[78.0919578, 19.8818402], [78.091768, 19.8812884], [78.0967352, 19.8804608], [78.0986151, 19.8800449], [78.0990635, 19.8806348], [78.0960625, 19.8812927], [78.0919578, 19.8818402]]]}, "properties": {"state": "Maharashtra", "district": "Nanded", "taluka": "Mahur", "village": "\u092c\u094b\u0902\u0921 \u0917\u0935\u094d\u0939\u093e\u0923", "village_giscode": "RVM1501271500010190910000", "survey_no": "3", "plotid": "VgzsdLakTFmGiRu8KslzCg", "bbox": [78.09174504228876, 19.880030706352166, 78.09910375672324, 19.881841599588277], "area_hectares": 5.54, "area_acres": 13.69, "geom_kind": "polygon", "has_geometry": true}}, {"type": "Feature", "geometry": {"type": "Polygon", "coordinates": [[[78.0872476, 19.8901723], [78.0871497, 19.8895317], [78.0881516, 19.889468], [78.0890933, 19.8892169], [78.0902308, 19.8886624], [78.0903137, 19.8889172], [78.0894022, 19.8899026], [78.089018, 19.8899663], [78.0883249, 19.8901723], [78.0878654, 19.890236], [78.0872476, 19.8901723]]]}, "properties": {"state": "Maharashtra", "district": "Nanded", "taluka": "Mahur", "village": "\u092c\u094b\u0902\u0921 \u0917\u0935\u094d\u0939\u093e\u0923", "village_giscode": "RVM1501271500010190910000", "survey_no": "30", "plotid": "6Y_lQP2fR9mclyEa4qf6-g", "bbox": [78.08713211138173, 19.888653702918177, 78.09034632940671, 19.890252249122906], "area_hectares": 2.6, "area_acres": 6.425, "geom_kind": "polygon", "has_geometry": true}}, {"type": "Feature", "geometry": {"type": "Polygon", "coordinates": [[[78.091764, 19.8812819], [78.0916654, 19.8808445], [78.0920104, 19.8807116], [78.0943926, 19.8803367], [78.0980563, 19.8796297], [78.0986148, 19.8800398], [78.0967419, 19.8804538], [78.091764, 19.8812819]]]}, "properties": {"state": "Maharashtra", "district": "Nanded", "taluka": "Mahur", "village": "\u092c\u094b\u0902\u0921 \u0917\u0935\u094d\u0939\u093e\u0923", "village_giscode": "RVM1501271500010190910000", "survey_no": "4", "plotid": "9BWbeM3FR_SoQTmxt_aVyw", "bbox": [78.09164351476942, 19.879616642127218, 78.09865316789987, 19.88128323586477], "area_hectares": 4.14, "area_acres": 10.23, "geom_kind": "polygon", "has_geometry": true}}, {"type": "Feature", "geometry": {"type": "Polygon", "coordinates": [[[78.0920373, 19.8807081], [78.0916919, 19.8790117], [78.095296, 19.878358], [78.0961069, 19.8785158], [78.0963922, 19.8787243], [78.097113, 19.8789723], [78.0974283, 19.879395], [78.098059, 19.879626], [78.094395, 19.8803361], [78.0920373, 19.8807081]]]}, "properties": {"state": "Maharashtra", "district": "Nanded", "taluka": "Mahur", "village": "\u092c\u094b\u0902\u0921 \u0917\u0935\u094d\u0939\u093e\u0923", "village_giscode": "RVM1501271500010190910000", "survey_no": "5", "plotid": "w6M6-DfqS0ecoOhDEP2fOQ", "bbox": [78.09168694154697, 19.87830539625912, 78.098094076589, 19.88070993394344], "area_hectares": 10.09, "area_acres": 24.933, "geom_kind": "polygon", "has_geometry": true}}, {"type": "Feature", "geometry": {"type": "Polygon", "coordinates": [[[78.0913086, 19.880948], [78.090773, 19.8791714], [78.0916953, 19.8790112], [78.0920315, 19.8807053], [78.0913086, 19.880948]]]}, "properties": {"state": "Maharashtra", "district": "Nanded", "taluka": "Mahur", "village": "\u092c\u094b\u0902\u0921 \u0917\u0935\u094d\u0939\u093e\u0923", "village_giscode": "RVM1501271500010190910000", "survey_no": "6", "plotid": "xP60Hsh3QXSWH3U6inLykg", "bbox": [78.09076905763443, 19.879000496596518, 78.09203845315191, 19.88095412720022], "area_hectares": 1.67, "area_acres": 4.127, "geom_kind": "polygon", "has_geometry": true}}, {"type": "Feature", "geometry": {"type": "Polygon", "coordinates": [[[78.0876061, 19.8820812], [78.0871086, 19.8803566], [78.0893774, 19.8798687], [78.089258, 19.8794977], [78.0907606, 19.8791747], [78.091298, 19.8809475], [78.0876061, 19.8820812]]]}, "properties": {"state": "Maharashtra", "district": "Nanded", "taluka": "Mahur", "village": "\u092c\u094b\u0902\u0921 \u0917\u0935\u094d\u0939\u093e\u0923", "village_giscode": "RVM1501271500010190910000", "survey_no": "7", "plotid": "9Qb8W8gxSj2PN5FFct_kFg", "bbox": [78.08708534255405, 19.879158711549398, 78.09133114181135, 19.88209039592277], "area_hectares": 7.74, "area_acres": 19.126, "geom_kind": "polygon", "has_geometry": true}}, {"type": "Feature", "geometry": {"type": "Polygon", "coordinates": [[[78.0880827, 19.883162], [78.0876091, 19.8820909], [78.0916554, 19.8808505], [78.0919436, 19.8817248], [78.0918407, 19.8822385], [78.0880827, 19.883162]]]}, "properties": {"state": "Maharashtra", "district": "Nanded", "taluka": "Mahur", "village": "\u092c\u094b\u0902\u0921 \u0917\u0935\u094d\u0939\u093e\u0923", "village_giscode": "RVM1501271500010190910000", "survey_no": "8", "plotid": "OdyfJXDASauTEwQ3fjeaSg", "bbox": [78.08758511711389, 19.88083771080077, 78.09197795763754, 19.883169273483002], "area_hectares": 6.04, "area_acres": 14.925, "geom_kind": "polygon", "has_geometry": true}}, {"type": "Feature", "geometry": {"type": "Polygon", "coordinates": [[[78.0882604, 19.8835349], [78.0880816, 19.8831641], [78.0882157, 19.8831033], [78.0918366, 19.8822431], [78.0918634, 19.8829544], [78.0882604, 19.8835349]]]}, "properties": {"state": "Maharashtra", "district": "Nanded", "taluka": "Mahur", "village": "\u092c\u094b\u0902\u0921 \u0917\u0935\u094d\u0939\u093e\u0923", "village_giscode": "RVM1501271500010190910000", "survey_no": "9", "plotid": "LwdiBcMSSTqbCHlwLqeVBQ", "bbox": [78.08806966305154, 19.88223909068392, 78.09188423383787, 19.883535908401345], "area_hectares": 2.34, "area_acres": 5.782, "geom_kind": "polygon", "has_geometry": true}}]}